FALCONSAT-10            
1 58291U 23174AM  26068.70247784  .00006748  00000+0  25969-3 0  9991
2 58291  97.3865 145.7938 0008932 169.5942 190.5483 15.26670596129582
STARLINK-31699          
1 59551U 24074T   26068.15266485 -.00002975  00000+0 -98612-4 0  9995
2 59551  43.0013 346.4327 0000668 316.0050  44.0749 15.27587018105932
